ASTROCAST-0403          
1 55111U 23001DG  26068.82333059  .00013959  00000+0  51317-3 0  9990
2 55111  97.5604 161.3228 0004770 338.0704  22.0330 15.28004949129376
STARLINK-35891          
1 67045U 25294R   26068.93698693  .00037437  00000+0  13633-2 0  9990
2 67045  43.0028  36.9623 0001536 267.3111  92.7565 15.27574617 14831
